start=new Date('2021-11-15T00:00:00.000Z').valueOf();
sats=[{"COUNTRY_CODE":"US","MEAN_ELEMENT_THEORY":"SGP4","DECAY_DATE":null,"FILE":"3215179","ELEMENT_SET_NO":"999","EPOCH":"2021-11-14T20:16:24.652128","PERIAPSIS":"546.036","OBJECT_TYPE":"PAYLOAD","ECCENTRICITY":"0.00017180","TIME_SYSTEM":"UTC","CLASSIFICATION_TYPE":"U","BSTAR":"-0.00002712800000","NORAD_CAT_ID":"46674","OBJECT_NAME":"STARLINK-1718","MEAN_ANOMALY":"287.4596","INCLINATION":"53.0546","TLE_LINE1":"1 46674U 20073E   21318.84472977 -.00000686  00000-0 -27128-4 0  9998","EPHEMERIS_TYPE":"0","MEAN_MOTION":"15.06395874","OBJECT_ID":"2020-073E","RCS_SIZE":"LARGE","MEAN_MOTION_DDOT":"0.0000000000000","REF_FRAME":"TEME","SEMIMAJOR_AXIS":"6925.361","GP_ID":"189774634","RA_OF_ASC_NODE":"115.8658","MEAN_MOTION_DOT":"-0.00000686","CENTER_NAME":"EARTH","REV_AT_EPOCH":"5961","ARG_OF_PERICENTER":"72.6581","LAUNCH_DATE":"2020-10-18","PERIOD":"95.592","SITE":"AFETR","TLE_LINE2":"2 46674  53.0546 115.8658 0001718  72.6581 287.4596 15.06395874 59612","APOAPSIS":"548.416"},{"TLE_LINE1":"1 46675U 20073F   21318.57566052  .00001402  00000-0  11301-3 0  9997","INCLINATION":"53.0544","MEAN_ANOMALY":"287.1152","OBJECT_NAME":"STARLINK-1720","NORAD_CAT_ID":"46675","BSTAR":"0.00011301000000","CLASSIFICATION_TYPE":"U","TIME_SYSTEM":"UTC","ECCENTRICITY":"0.00015540","OBJECT_TYPE":"PAYLOAD","PERIAPSIS":"546.142","EPOCH":"2021-11-14T13:48:57.068928","ELEMENT_SET_NO":"999","DECAY_DATE":null,"FILE":"3215179","MEAN_ELEMENT_THEORY":"SGP4","COUNTRY_CODE":"US","TLE_LINE2":"2 46675  53.0544 117.0753 0001554  73.0008 287.1152 15.06398334 59572","APOAPSIS":"548.295","SITE":"AFETR","PERIOD":"95.592","LAUNCH_DATE":"2020-10-18","ARG_OF_PERICENTER":"73.0008","REV_AT_EPOCH":"5957","CENTER_NAME":"EARTH","GP_ID":"189774385","RA_OF_ASC_NODE":"117.0753","MEAN_MOTION_DOT":"0.00001402","SEMIMAJOR_AXIS":"6925.354","MEAN_MOTION_DDOT":"0.0000000000000","REF_FRAME":"TEME","OBJECT_ID":"2020-073F","MEAN_MOTION":"15.06398334","RCS_SIZE":"LARGE","EPHEMERIS_TYPE":"0"},{"APOAPSIS":"548.182","TLE_LINE2":"2 46677  53.0537 115.9014 0001346  87.9240 272.1903 15.06388072 59615","SITE":"AFETR","PERIOD":"95.593","LAUNCH_DATE":"2020-10-18","ARG_OF_PERICENTER":"87.9240","REV_AT_EPOCH":"5961","CENTER_NAME":"EARTH","GP_ID":"189773133","RA_OF_ASC_NODE":"115.9014","MEAN_MOTION_DOT":"0.00000728","SEMIMAJOR_AXIS":"6925.385","MEAN_MOTION_DDOT":"0.0000000000000","REF_FRAME":"TEME","MEAN_MOTION":"15.06388072","OBJECT_ID":"2020-073H","RCS_SIZE":"LARGE","EPHEMERIS_TYPE":"0","TLE_LINE1":"1 46677U 20073H   21318.83736331  .00000728  00000-0  67792-4 0  9993","INCLINATION":"53.0537","MEAN_ANOMALY":"272.1903","OBJECT_NAME":"STARLINK-1766","NORAD_CAT_ID":"46677","BSTAR":"0.00006779200000","CLASSIFICATION_TYPE":"U","TIME_SYSTEM":"UTC","OBJECT_TYPE":"PAYLOAD","ECCENTRICITY":"0.00013460","PERIAPSIS":"546.318","EPOCH":"2021-11-14T20:05:48.189984","ELEMENT_SET_NO":"999","DECAY_DATE":null,"FILE":"3215179","COUNTRY_CODE":"US","MEAN_ELEMENT_THEORY":"SGP4"},{"ELEMENT_SET_NO":"999","COUNTRY_CODE":"US","MEAN_ELEMENT_THEORY":"SGP4","DECAY_DATE":null,"FILE":"3215179","EPOCH":"2021-11-14T20:13:44.642784","PERIAPSIS":"546.333","BSTAR":"0.00007430800000","CLASSIFICATION_TYPE":"U","NORAD_CAT_ID":"46679","OBJECT_TYPE":"PAYLOAD","ECCENTRICITY":"0.00012710","TIME_SYSTEM":"UTC","TLE_LINE1":"1 46679U 20073K   21318.84287781  .00000826  00000-0  74308-4 0  9996","OBJECT_NAME":"STARLINK-1773","MEAN_ANOMALY":"211.6437","INCLINATION":"53.0549","MEAN_MOTION_DDOT":"0.0000000000000","REF_FRAME":"TEME","EPHEMERIS_TYPE":"0","OBJECT_ID":"2020-073K","MEAN_MOTION":"15.06400041","RCS_SIZE":"LARGE","GP_ID":"189773383","RA_OF_ASC_NODE":"95.8529","MEAN_MOTION_DOT":"0.00000826","CENTER_NAME":"EARTH","SEMIMAJOR_AXIS":"6925.348","LAUNCH_DATE":"2020-10-18","PERIOD":"95.592","REV_AT_EPOCH":"5989","ARG_OF_PERICENTER":"148.4628","APOAPSIS":"548.094","TLE_LINE2":"2 46679  53.0549  95.8529 0001271 148.4628 211.6437 15.06400041 59898","SITE":"AFETR"},{"PERIAPSIS":"546.249","EPOCH":"2021-11-14T20:17:04.555968","DECAY_DATE":null,"FILE":"3215179","COUNTRY_CODE":"US","MEAN_ELEMENT_THEORY":"SGP4","ELEMENT_SET_NO":"999","MEAN_ANOMALY":"277.9496","INCLINATION":"53.0536","OBJECT_NAME":"STARLINK-1774","TLE_LINE1":"1 46680U 20073L   21318.84519162 -.00001369  00000-0 -73030-4 0  9995","TIME_SYSTEM":"UTC","OBJECT_TYPE":"PAYLOAD","ECCENTRICITY":"0.00013790","NORAD_CAT_ID":"46680","CLASSIFICATION_TYPE":"U","BSTAR":"-0.00007303000000","SEMIMAJOR_AXIS":"6925.339","CENTER_NAME":"EARTH","GP_ID":"189774135","RA_OF_ASC_NODE":"130.8488","MEAN_MOTION_DOT":"-0.00001369","MEAN_MOTION":"15.06402983","OBJECT_ID":"2020-073L","RCS_SIZE":"LARGE","EPHEMERIS_TYPE":"0","MEAN_MOTION_DDOT":"0.0000000000000","REF_FRAME":"TEME","SITE":"AFETR","TLE_LINE2":"2 46680  53.0536 130.8488 0001379  82.1650 277.9496 15.06402983 59402","APOAPSIS":"548.159","ARG_OF_PERICENTER":"82.1650","REV_AT_EPOCH":"5940","PERIOD":"95.592","LAUNCH_DATE":"2020-10-18"},{"NORAD_CAT_ID":"46681","BSTAR":"0.00006124500000","CLASSIFICATION_TYPE":"U","TIME_SYSTEM":"UTC","OBJECT_TYPE":"PAYLOAD","ECCENTRICITY":"0.00015560","TLE_LINE1":"1 46681U 20073M   21318.88204841  .00000631  00000-0  61245-4 0  9999","MEAN_ANOMALY":"277.9582","INCLINATION":"53.0553","OBJECT_NAME":"STARLINK-1775","ELEMENT_SET_NO":"999","FILE":"3215179","DECAY_DATE":null,"COUNTRY_CODE":"US","MEAN_ELEMENT_THEORY":"SGP4","PERIAPSIS":"546.125","EPOCH":"2021-11-14T21:10:08.982624","PERIOD":"95.592","LAUNCH_DATE":"2020-10-18","ARG_OF_PERICENTER":"82.1583","REV_AT_EPOCH":"5940","TLE_LINE2":"2 46681  53.0553 130.6986 0001556  82.1583 277.9582 15.06403437 59406","APOAPSIS":"548.281","SITE":"AFETR","REF_FRAME":"TEME","MEAN_MOTION_DDOT":"0.0000000000000","RCS_SIZE":"LARGE","MEAN_MOTION":"15.06403437","OBJECT_ID":"2020-073M","EPHEMERIS_TYPE":"0","CENTER_NAME":"EARTH","RA_OF_ASC_NODE":"130.6986","MEAN_MOTION_DOT":"0.00000631","GP_ID":"189774885","SEMIMAJOR_AXIS":"6925.338"},{"SITE":"AFETR","TLE_LINE2":"2 46682  53.0523 130.5790 0001439  78.7347 281.3803 15.06392814 59417","APOAPSIS":"548.232","REV_AT_EPOCH":"5941","ARG_OF_PERICENTER":"78.7347","LAUNCH_DATE":"2020-10-18","PERIOD":"95.593","SEMIMAJOR_AXIS":"6925.371","MEAN_MOTION_DOT":"-0.00001268","RA_OF_ASC_NODE":"130.5790","GP_ID":"189773633","CENTER_NAME":"EARTH","EPHEMERIS_TYPE":"0","RCS_SIZE":"LARGE","MEAN_MOTION":"15.06392814","OBJECT_ID":"2020-073N","REF_FRAME":"TEME","MEAN_MOTION_DDOT":"0.0000000000000","OBJECT_NAME":"STARLINK-1776","MEAN_ANOMALY":"281.3803","INCLINATION":"53.0523","TLE_LINE1":"1 46682U 20073N   21318.90785253 -.00001268  00000-0 -66227-4 0  9998","ECCENTRICITY":"0.00014390","OBJECT_TYPE":"PAYLOAD","TIME_SYSTEM":"UTC","BSTAR":"-0.00006622700000","CLASSIFICATION_TYPE":"U","NORAD_CAT_ID":"46682","EPOCH":"2021-11-14T21:47:18.458592","PERIAPSIS":"546.239","COUNTRY_CODE":"US","MEAN_ELEMENT_THEORY":"SGP4","FILE":"3215179","DECAY_DATE":null,"ELEMENT_SET_NO":"999"},{"REF_FRAME":"TEME","MEAN_MOTION_DDOT":"0.0000000000000","EPHEMERIS_TYPE":"0","RCS_SIZE":"LARGE","OBJECT_ID":"2020-073Q","MEAN_MOTION":"15.06395980","MEAN_MOTION_DOT":"0.00001191","RA_OF_ASC_NODE":"117.1227","GP_ID":"189746100","CENTER_NAME":"EARTH","SEMIMAJOR_AXIS":"6925.361","LAUNCH_DATE":"2020-10-18","PERIOD":"95.592","REV_AT_EPOCH":"5957","ARG_OF_PERICENTER":"88.9596","APOAPSIS":"548.085","TLE_LINE2":"2 46684  53.0529 117.1227 0001241  88.9596 271.1535 15.06395980 59574","SITE":"AFETR","ELEMENT_SET_NO":"999","MEAN_ELEMENT_THEORY":"SGP4","COUNTRY_CODE":"US","FILE":"3214995","DECAY_DATE":null,"EPOCH":"2021-11-14T13:33:01.423584","PERIAPSIS":"546.366","CLASSIFICATION_TYPE":"U","BSTAR":"0.00009887300000","NORAD_CAT_ID":"46684","ECCENTRICITY":"0.00012410","OBJECT_TYPE":"PAYLOAD","TIME_SYSTEM":"UTC","TLE_LINE1":"1 46684U 20073Q   21318.56459981  .00001191  00000-0  98873-4 0  9993","OBJECT_NAME":"STARLINK-1780","MEAN_ANOMALY":"271.1535","INCLINATION":"53.0529"},{"OBJECT_TYPE":"PAYLOAD","ECCENTRICITY":"0.00014710","TIME_SYSTEM":"UTC","BSTAR":"0.00009093100000","CLASSIFICATION_TYPE":"U","NORAD_CAT_ID":"46685","OBJECT_NAME":"STARLINK-1781","MEAN_ANOMALY":"280.8376","INCLINATION":"53.0562","TLE_LINE1":"1 46685U 20073R   21318.88574179  .00001073  00000-0  90931-4 0  9992","COUNTRY_CODE":"US","MEAN_ELEMENT_THEORY":"SGP4","FILE":"3215179","DECAY_DATE":null,"ELEMENT_SET_NO":"999","EPOCH":"2021-11-14T21:15:28.090656","PERIAPSIS":"546.201","REV_AT_EPOCH":"5940","ARG_OF_PERICENTER":"79.2779","LAUNCH_DATE":"2020-10-18","PERIOD":"95.592","SITE":"AFETR","TLE_LINE2":"2 46685  53.0562 130.6626 0001471  79.2779 280.8376 15.06397980 59400","APOAPSIS":"548.238","EPHEMERIS_TYPE":"0","RCS_SIZE":"LARGE","MEAN_MOTION":"15.06397980","OBJECT_ID":"2020-073R","REF_FRAME":"TEME","MEAN_MOTION_DDOT":"0.0000000000000","SEMIMAJOR_AXIS":"6925.355","MEAN_MOTION_DOT":"0.00001073","RA_OF_ASC_NODE":"130.6626","GP_ID":"189774635","CENTER_NAME":"EARTH"},{"EPHEMERIS_TYPE":"0","MEAN_MOTION":"15.06387227","OBJECT_ID":"2020-073S","RCS_SIZE":"LARGE","MEAN_MOTION_DDOT":"0.0000000000000","REF_FRAME":"TEME","SEMIMAJOR_AXIS":"6925.388","GP_ID":"189774386","RA_OF_ASC_NODE":"130.7569","MEAN_MOTION_DOT":"-0.00001251","CENTER_NAME":"EARTH","REV_AT_EPOCH":"5940","ARG_OF_PERICENTER":"76.2372","LAUNCH_DATE":"2020-10-18","PERIOD":"95.593","SITE":"AFETR","APOAPSIS":"548.341","TLE_LINE2":"2 46686  53.0540 130.7569 0001571  76.2372 283.8792 15.06387227 59409","COUNTRY_CODE":"US","MEAN_ELEMENT_THEORY":"SGP4","DECAY_DATE":null,"FILE":"3215179","ELEMENT_SET_NO":"999","EPOCH":"2021-11-14T20:48:56.668320","PERIAPSIS":"546.165","ECCENTRICITY":"0.00015710","OBJECT_TYPE":"PAYLOAD","TIME_SYSTEM":"UTC","CLASSIFICATION_TYPE":"U","BSTAR":"-0.00006513600000","NORAD_CAT_ID":"46686","OBJECT_NAME":"STARLINK-1783","MEAN_ANOMALY":"283.8792","INCLINATION":"53.0540","TLE_LINE1":"1 46686U 20073S   21318.86732255 -.00001251  00000-0 -65136-4 0  9991"}];
